NORAD_CAT_ID,OBJECT_NAME,OBJECT_TYPE,EPOCH,MEAN_MOTION,ECCENTRICITY,INCLINATION,RA_OF_ASC_NODE,ARG_OF_PERICENTER,MEAN_ANOMALY,BSTAR,MEAN_MOTION_DOT,MEAN_MOTION_DDOT,TLE_LINE0,TLE_LINE1,TLE_LINE2,SEMIMAJOR_AXIS,PERIOD,APOGEE,PERIGEE,DECAYED
53894.0,STARLINK-5043,PAYLOAD,2022-10-26 20:00:01,15.73220219,0.0001643,53.2145,95.2981,59.8131,358.8819,4.992100000000001e-05,6.397e-05,0.0,0 STARLINK-5043,1 53894U 22119J   22299.83334491  .00006397  00000-0  49921-4 0  9997,2 53894  53.2145  95.2981 0001643  59.8131 358.8819 15.73220219  5454,6727.8380000000025,91.532,350.80800000000005,348.597,0.0
53894.0,STARLINK-5043,PAYLOAD,2022-10-26 22:00:00,15.73231132,0.0001574,53.2141,94.8857,57.8248,113.1065,-0.00013585,-0.00019668,0.0,0 STARLINK-5043,1 53894U 22119J   22299.91667824 -.00019668  00000-0 -13585-3 0  9998,2 53894  53.2141  94.8857 0001574  57.8248 113.1065 15.73231132  1308,6727.806,91.531,350.73,348.612,0.0
53894.0,STARLINK-5043,PAYLOAD,2022-10-27 14:00:01,15.73206792,0.0001186,53.2147,91.5852,52.5937,296.3089,0.00021505,0.00029676,0.0,0 STARLINK-5043,1 53894U 22119J   22300.58335648  .00029676  00000-0  21505-3 0  9999,2 53894  53.2147  91.5852 0001186  52.5937 296.3089 15.73206792  1303,6727.876,91.533,350.539,348.9430000000001,0.0
53894.0,STARLINK-5043,PAYLOAD,2022-10-27 22:00:00,15.732451199999998,0.0001398,53.2147,89.9369,42.9074,34.8769,0.000302,0.00042058,0.0,0 STARLINK-5043,1 53894U 22119J   22300.91667824  .00042058  00000-0  30200-3 0  9991,2 53894  53.2147  89.9369 0001398  42.9074  34.8769 15.73245120  1305,6727.767,91.531,350.57199999999995,348.691,0.0
53894.0,STARLINK-5043,PAYLOAD,2022-10-28 04:00:00,15.73289226,0.0001274,53.2153,88.6981,48.3785,6.1577,-0.00061726,-0.0008669,0.0,0 STARLINK-5043,1 53894U 22119J   22301.16667824 -.00086690  00000-0 -61726-3 0  9998,2 53894  53.2153  88.6981 0001274  48.3785   6.1577 15.73289226  5667,6727.641,91.528,350.36300000000006,348.649,0.0
53894.0,STARLINK-5043,PAYLOAD,2022-10-28 14:00:01,15.73211606,0.0001494,53.2154,86.6367,48.235,207.5968,-0.00037314,-0.00052688,0.0,0 STARLINK-5043,1 53894U 22119J   22301.58335648 -.00052688  00000-0 -37314-3 0  9996,2 53894  53.2154  86.6367 0001494  48.2350 207.5968 15.73211606  1300,6727.861999999999,91.533,350.732,348.722,0.0
53894.0,STARLINK-5043,PAYLOAD,2022-10-28 20:00:01,15.73168311,0.000161,53.2153,85.4008,42.2274,190.2338,0.00044547,0.00062279,0.0,0 STARLINK-5043,1 53894U 22119J   22301.83334491  .00062279  00000-0  44547-3 0  9990,2 53894  53.2153  85.4008 0001610  42.2274 190.2338 15.73168311  5764,6727.986,91.535,350.934,348.767,0.0
53894.0,STARLINK-5043,PAYLOAD,2022-10-28 22:00:01,15.73207959,0.0001575999999999,53.2148,84.9881,38.7651,305.9786,-7.594e-05,-0.00011268,0.0,0 STARLINK-5043,1 53894U 22119J   22301.91668981 -.00011268  00000-0 -75940-4 0  9999,2 53894  53.2148  84.9881 0001576  38.7651 305.9786 15.73207959  1301,6727.871999999999,91.533,350.798,348.677,0.0
53894.0,STARLINK-5043,PAYLOAD,2022-10-29 04:00:00,15.73204972,0.0001288,53.2151,83.7495,39.7681,281.6221,-0.00025526,-0.00036297,0.0,0 STARLINK-5043,1 53894U 22119J   22302.16667824 -.00036297  00000-0 -25526-3 0  9995,2 53894  53.2151  83.7495 0001288  39.7681 281.6221 15.73204972  5813,6727.880999999999,91.533,350.61300000000006,348.879,0.0
53894.0,STARLINK-5043,PAYLOAD,2022-10-29 12:00:00,15.73170095,0.0001858,53.2157,82.0925,54.4609,355.8501,-0.00038445,-0.00054164,0.0,0 STARLINK-5043,1 53894U 22119J   22302.50001157 -.00054164  00000-0 -38445-3 0  9991,2 53894  53.2157  82.0925 0001858  54.4609 355.8501 15.73170095  1309,6727.98,91.535,351.095,348.595,0.0
53894.0,STARLINK-5043,PAYLOAD,2022-10-29 22:00:01,15.73195601,0.0001939,53.2151,80.0399,44.9898,206.4579,8.8543e-06,6.22e-06,0.0,0 STARLINK-5043,1 53894U 22119J   22302.91668981  .00000622  00000-0  88543-5 0  9994,2 53894  53.2151  80.0399 0001939  44.9898 206.4579 15.73195601  1306,6727.908,91.533,351.077,348.468,0.0
53894.0,STARLINK-5043,PAYLOAD,2022-10-30 00:00:00,15.73222876,0.0001906999999999,53.2153,79.6271,44.7433,318.8612,-0.0004055,-0.00057204,0.0,0 STARLINK-5043,1 53894U 22119J   22303.00001157 -.00057204  00000-0 -40550-3 0  9995,2 53894  53.2153  79.6271 0001907  44.7433 318.8612 15.73222876  5944,6727.83,91.532,350.978,348.412,0.0
53894.0,STARLINK-5043,PAYLOAD,2022-10-30 14:00:01,15.73196075,0.0001798,53.2156,76.7404,39.0515,30.1709,-7.0592e-07,-7.200000000000001e-06,0.0,0 STARLINK-5043,1 53894U 22119J   22303.58334491 -.00000720  00000-0 -70592-6 0  9991,2 53894  53.2156  76.7404 0001798  39.0515  30.1709 15.73196075  1307,6727.906,91.533,350.981,348.56199999999984,0.0
53894.0,STARLINK-5043,PAYLOAD,2022-10-30 22:00:01,15.73219927,0.0001921,53.215,75.0913,32.6222,125.587,-0.00052825,-0.00074176,0.0,0 STARLINK-5043,1 53894U 22119J   22303.91668981 -.00074176  00000-0 -52825-3 0  9994,2 53894  53.2150  75.0913 0001921  32.6222 125.5870 15.73219927  1300,6727.8380000000025,91.532,350.996,348.411,0.0
53894.0,STARLINK-5043,PAYLOAD,2022-10-31 14:00:01,15.73236462,0.0001902,53.2152,71.7921,35.0314,300.9088,-0.00035884,-0.00050761,0.0,0 STARLINK-5043,1 53894U 22119J   22304.58334491 -.00050761  00000-0 -35884-3 0  9994,2 53894  53.2152  71.7921 0001902  35.0314 300.9088 15.73236462  1305,6727.791,91.531,350.936,348.37699999999984,0.0
53894.0,STARLINK-5043,PAYLOAD,2022-10-31 20:00:01,15.731888,0.0002036,53.2152,70.5557,29.4178,283.3133,0.00046248,0.00064759,0.0,0 STARLINK-5043,1 53894U 22119J   22304.83335648  .00064759  00000-0  46248-3 0  9993,2 53894  53.2152  70.5557 0002036  29.4178 283.3133 15.73188800  6235,6727.927,91.534,351.162,348.422,0.0
53894.0,STARLINK-5043,PAYLOAD,2022-10-31 22:00:01,15.73231134,0.0002054,53.2151,70.1427,29.814,35.1403,-0.00012031,-0.00017495,0.0,0 STARLINK-5043,1 53894U 22119J   22304.91668981 -.00017495  00000-0 -12031-3 0  9991,2 53894  53.2151  70.1427 0002054  29.8140  35.1403 15.73231134  1304,6727.806,91.531,351.05300000000005,348.29,0.0
53894.0,STARLINK-5043,PAYLOAD,2022-11-01 04:00:00,15.7317573,0.0001902,53.2156,68.9039,34.4542,7.1675,0.00059875,0.00084171,0.0,0 STARLINK-5043,1 53894U 22119J   22305.16667824  .00084171  00000-0  59875-3 0  9994,2 53894  53.2156  68.9039 0001902  34.4542   7.1675 15.73175730  6294,6727.964,91.535,351.1090000000001,348.55,0.0
53894.0,STARLINK-5043,PAYLOAD,2022-11-01 12:00:00,15.73245879,0.0002006999999999,53.2157,67.255,32.4932,98.0632,-0.00029449,-0.0004183,0.0,0 STARLINK-5043,1 53894U 22119J   22305.50001157 -.00041830  00000-0 -29449-3 0  9994,2 53894  53.2157  67.2550 0002007  32.4932  98.0632 15.73245879  6343,6727.764,91.531,350.98,348.279,0.0
53894.0,STARLINK-5043,PAYLOAD,2022-11-01 14:00:01,15.73231348,0.0002081,53.2155,66.8433,30.2988,212.5055,-0.00020639,-0.00029527,0.0,0 STARLINK-5043,1 53894U 22119J   22305.58334491 -.00029527  00000-0 -20639-3 0  9993,2 53894  53.2155  66.8433 0002081  30.2988 212.5055 15.73231348  1304,6727.806,91.531,351.071,348.271,0.0
53894.0,STARLINK-5043,PAYLOAD,2022-11-01 22:00:00,15.732345,0.0002133,53.2151,65.1936,23.9638,307.7935,-0.00036959,-0.00052252,0.0,0 STARLINK-5043,1 53894U 22119J   22305.91667824 -.00052252  00000-0 -36959-3 0  9992,2 53894  53.2151  65.1936 0002133  23.9638 307.7935 15.73234500  1306,6727.797,91.531,351.097,348.227,0.0
53894.0,STARLINK-5043,PAYLOAD,2022-11-02 12:00:00,15.73169538,0.0002068,53.2154,62.3065,24.5684,12.8208,0.00032594,0.00045313,0.0,0 STARLINK-5043,1 53894U 22119J   22306.50001157  .00045313  00000-0  32594-3 0  9998,2 53894  53.2154  62.3065 0002068  24.5684  12.8208 15.73169538  6508,6727.982,91.535,351.23800000000006,348.456,0.0
53894.0,STARLINK-5043,PAYLOAD,2022-11-02 14:00:01,15.73172013,0.000216,53.2155,61.8926,22.8144,126.8008,0.00043592,0.00060933,0.0,0 STARLINK-5043,1 53894U 22119J   22306.58334491  .00060933  00000-0  43592-3 0  9991,2 53894  53.2155  61.8926 0002160  22.8144 126.8008 15.73172013  1303,6727.975,91.535,351.293,348.38699999999994,0.0
53894.0,STARLINK-5043,PAYLOAD,2022-11-02 22:00:00,15.73243082,0.0002331,53.2153,60.2445,21.6933,216.9591,-0.00046911,-0.00066074,0.0,0 STARLINK-5043,1 53894U 22119J   22306.91667824 -.00066074  00000-0 -46911-3 0  9999,2 53894  53.2153  60.2445 0002331  21.6933 216.9591 15.73243082  1306,6727.772,91.531,351.206,348.069,0.0
53894.0,STARLINK-5043,PAYLOAD,2022-11-03 14:00:01,15.73220925,0.0002454,53.2169,56.93899999999999,22.202,34.3376,-6.8029e-06,-1.578e-05,0.0,0 STARLINK-5043,1 53894U 22119J   22307.58334491 -.00001578  00000-0 -68029-5 0  9998,2 53894  53.2169  56.9390 0002454  22.2020  34.3376 15.73220925  1308,6727.8359999999975,91.532,351.352,348.05,0.0
53894.0,STARLINK-5043,PAYLOAD,2022-11-03 22:00:00,15.73101348,0.0001947,53.2163,55.2816,342.273,163.2719,-0.0038729,-0.00510353,0.0,0 STARLINK-5043,1 53894U 22119J   22307.91667824 -.00510353  00000-0 -38729-2 0  9991,2 53894  53.2163  55.2816 0001947 342.2730 163.2719 15.73101348  6727,6728.176,91.539,351.351,348.731,0.0
53894.0,STARLINK-5043,PAYLOAD,2022-11-04 06:00:00,15.7292181,0.0003078999999999,53.2173,53.6238,282.9293,311.189,-0.0092244,-0.01141554,0.0,0 STARLINK-5043,1 53894U 22119J   22308.25001157 -.01141554  00000-0 -92244-2 0  9996,2 53894  53.2173  53.6238 0003079 282.9293 311.1890 15.72921810  6772,6728.688,91.549,352.625,348.482,0.0
53894.0,STARLINK-5043,PAYLOAD,2022-11-04 14:00:01,15.72104853,0.0005997999999999,53.2172,51.978,272.4029,49.7972,-0.0095098999999999,-0.01138694,0.0,0 STARLINK-5043,1 53894U 22119J   22308.58334491 -.01138694  00000-0 -95099-2 0  9994,2 53894  53.2172  51.9780 0005998 272.4029  49.7972 15.72104853  1306,6731.019,91.597,356.922,348.847,0.0
53894.0,STARLINK-5043,PAYLOAD,2022-11-04 22:00:01,15.71283628,0.0006935999999999,53.2172,50.3315,270.869,138.5025,-0.0097135,-0.01125346,0.0,0 STARLINK-5043,1 53894U 22119J   22308.91668981 -.01125346  00000-0 -97135-2 0  9998,2 53894  53.2172  50.3315 0006936 270.8690 138.5025 15.71283628  6883,6733.364000000001,91.645,359.9,350.559,0.0
